OBJECT_NAME,OBJECT_ID,EPOCH,MEAN_MOTION,ECCENTRICITY,INCLINATION,RA_OF_ASC_NODE,ARG_OF_PERICENTER,MEAN_ANOMALY,EPHEMERIS_TYPE,CLASSIFICATION_TYPE,NORAD_CAT_ID,ELEMENT_SET_NO,REV_AT_EPOCH,BSTAR,MEAN_MOTION_DOT,MEAN_MOTION_DDOT
SWARM B,2013-067A,2026-07-22T21:01:56.362656,15.28754111,.00022523,87.7464,331.4766,91.6172,268.5335,0,U,39451,999,68869,.1267895E-3,.3576E-4,0
SWARM A,2013-067B,2026-07-22T21:27:08.917344,15.50713266,.00032951,87.3303,42.9619,89.9243,270.2396,0,U,39452,999,71178,.19413409E-3,.11193E-3,0
SWARM C,2013-067C,2026-07-22T21:26:13.400160,15.50716186,.00032685,87.3304,41.5428,90.5052,269.6583,0,U,39453,999,71174,.19414959E-3,.11195E-3,0
BRITE-CA1 (TORONTO),2014-033L,2026-07-22T18:37:40.407168,14.72733867,.00790378,97.9779,332.0567,162.0536,198.3491,0,U,40020,999,64745,.13467749E-3,.85E-5,0
OCO 2,2014-035A,2026-07-22T20:43:11.081280,14.57136650,.00013966,98.2021,144.6150,80.6811,279.4545,0,U,40059,999,64124,.81282473E-4,.321E-5,0
BRITE-PL2 (HEWELIUSZ),2014-049B,2026-07-22T14:05:14.385120,14.94702812,.0013634,97.9122,315.8672,358.1835,1.9333,0,U,40119,999,64673,.15180654E-3,.159E-4,0
MMS 1,2015-011A,2026-07-23T00:00:02.000160,0.28356654,.83017972,72.5747,348.3703,168.1803,351.7491,0,U,40482,999,138,0,-.1526E-4,0
MMS 2,2015-011B,2026-07-23T00:00:02.000160,0.28356604,.83046159,72.5788,348.3693,168.1829,351.7353,0,U,40483,999,138,0,-.1527E-4,0
MMS 3,2015-011C,2026-07-23T00:00:02.000160,0.28356573,.8302984,72.5784,348.3812,168.1907,351.7093,0,U,40484,999,135,0,-.1526E-4,0
MMS 4,2015-011D,2026-07-23T00:00:02.000160,0.28356634,.83029405,72.5739,348.3647,168.2006,351.7057,0,U,40485,999,138,0,-.1526E-4,0
ASTROSAT,2015-052A,2026-07-22T22:44:27.219264,14.82561415,.00079696,5.9965,257.9494,189.8849,170.1122,0,U,40930,999,58514,.9516149E-4,.1455E-4,0
DAMPE,2015-078A,2026-07-22T23:44:11.435136,15.30867680,.00106522,97.4576,209.6352,315.8240,44.2149,0,U,41173,999,59002,.45288497E-4,.1274E-4,0
PISAT,2016-059B,2026-07-22T18:25:34.561632,14.69039402,.00305835,97.8195,202.6949,91.7871,268.6838,0,U,41784,999,52496,.13508281E-3,.751E-5,0
HXMT (HUIYAN),2017-034A,2026-07-22T18:48:05.436000,15.18737052,.00312561,43.0151,344.7924,8.7119,351.4266,0,U,42758,999,50307,.25187028E-3,.5151E-4,0
FLYING LAPTOP,2017-042G,2026-07-22T21:52:24.179808,15.01347345,.0019251,97.4846,358.1091,7.9108,352.2417,0,U,42831,999,49181,.22424828E-3,.2841E-4,0
ZHANGHENG 1-01 (CSES-1),2018-015C,2026-07-22T22:21:49.959072,15.20684427,.00169503,97.6902,10.3050,139.2883,220.9622,0,U,43194,999,47007,.38254308E-3,.8367E-4,0
SALSAT,2020-068K,2026-07-22T11:04:14.814912,15.30243913,.00099778,97.8868,208.6876,167.8214,192.3268,0,U,46495,999,32075,.24997179E-3,.7239E-4,0
IXPE,2021-121A,2026-07-23T00:00:02.000160,15.10538277,.00071709,0.2315,46.0553,259.2250,207.8478,0,U,49954,999,524,.64737839E-3,.11942E-3,0
SMILE,2026-109A,2026-07-13T23:01:31.580256,0.47500629,.83137076,70.0512,206.6048,286.9544,0.1879,0,U,69123,999,6,0,.936E-5,0
