{"epoch":1784799577,"count":18318,"objects":[{"id":"39451","name":"SWARM B","type":"PAYLOAD","l1":"1 39451U 13067A   26203.87634679  .00003576  00000-0  12679-3 0  9991","l2":"2 39451  87.7464 331.4766 0002252  91.6172 268.5335 15.28754111688691"},{"id":"39452","name":"SWARM A","type":"PAYLOAD","l1":"1 39452U 13067B   26203.89385321  .00011193  00000-0  19413-3 0  9998","l2":"2 39452  87.3303  42.9619 0003295  89.9243 270.2396 15.50713266711783"},{"id":"39453","name":"SWARM C","type":"PAYLOAD","l1":"1 39453U 13067C   26203.89321065  .00011195  00000-0  19415-3 0  9998","l2":"2 39453  87.3304  41.5428 0003268  90.5052 269.6583 15.50716186711744"},{"id":"40020","name":"BRITE TORONTO","type":"PAYLOAD","l1":"1 40020U 14033L   26203.77616212  .00000850  00000-0  13468-3 0  9990","l2":"2 40020  97.9779 332.0567 0079038 162.0536 198.3491 14.72733867647451"},{"id":"40059","name":"OCO 2","type":"PAYLOAD","l1":"1 40059U 14035A   26203.86332270  .00000321  00000-0  81282-4 0  9996","l2":"2 40059  98.2021 144.6150 0001397  80.6811 279.4545 14.57136650641248"},{"id":"40119","name":"BRITE-PL 2","type":"PAYLOAD","l1":"1 40119U 14049B   26203.58697205  .00001590  00000-0  15181-3 0  9992","l2":"2 40119  97.9122 315.8672 0013634 358.1835   1.9333 14.94702812646732"},{"id":"40482","name":"MMS 1","type":"PAYLOAD","l1":"1 40482U 15011A   26204.00002315 -.00001526  00000-0  00000-0 0  9996","l2":"2 40482  72.5747 348.3703 8301797 168.1803 351.7491  0.28356654  1383"},{"id":"40483","name":"MMS 2","type":"PAYLOAD","l1":"1 40483U 15011B   26204.00002315 -.00001527  00000-0  00000-0 0  9998","l2":"2 40483  72.5788 348.3693 8304616 168.1829 351.7353  0.28356604  1380"},{"id":"40484","name":"MMS 3","type":"PAYLOAD","l1":"1 40484U 15011C   26204.00002315 -.00001526  00000-0  00000-0 0  9998","l2":"2 40484  72.5784 348.3812 8302984 168.1907 351.7093  0.28356573  1356"},{"id":"40485","name":"MMS 4","type":"PAYLOAD","l1":"1 40485U 15011D   26204.00002315 -.00001526  00000-0  00000-0 0  9999","l2":"2 40485  72.5739 348.3647 8302941 168.2006 351.7057  0.28356634  1388"},{"id":"40930","name":"ASTROSAT","type":"PAYLOAD","l1":"1 40930U 15052A   26203.94753726  .00001455  00000-0  95161-4 0  9996","l2":"2 40930   5.9965 257.9494 0007970 189.8849 170.1122 14.82561415585146"},{"id":"41173","name":"DAMPE","type":"PAYLOAD","l1":"1 41173U 15078A   26203.98902124  .00001274  00000-0  45288-4 0  9990","l2":"2 41173  97.4576 209.6352 0010652 315.8240  44.2149 15.30867680590024"},{"id":"41784","name":"PISAT","type":"PAYLOAD","l1":"1 41784U 16059B   26203.76776113  .00000751  00000-0  13508-3 0  9999","l2":"2 41784  97.8195 202.6949 0030583  91.7871 268.6838 14.69039402524964"},{"id":"42758","name":"HXMT","type":"PAYLOAD","l1":"1 42758U 17034A   26203.78339625  .00005151  00000-0  25187-3 0  9995","l2":"2 42758  43.0151 344.7924 0031256   8.7119 351.4266 15.18737052503079"},{"id":"42831","name":"FLYING LAPTOP","type":"PAYLOAD","l1":"1 42831U 17042G   26203.91139097  .00002841  00000-0  22425-3 0  9997","l2":"2 42831  97.4846 358.1091 0019251   7.9108 352.2417 15.01347345491818"},{"id":"43194","name":"ZHANGHENG 1","type":"PAYLOAD","l1":"1 43194U 18015C   26203.93182823  .00008367  00000-0  38254-3 0  9994","l2":"2 43194  97.6902  10.3050 0016950 139.2883 220.9622 15.20684427470070"},{"id":"46495","name":"SALSAT","type":"PAYLOAD","l1":"1 46495U 20068K   26203.46128258  .00007239  00000-0  24997-3 0  9998","l2":"2 46495  97.8868 208.6876 0009978 167.8214 192.3268 15.30243913320754"},{"id":"49954","name":"IXPE","type":"PAYLOAD","l1":"1 49954U 21121A   26204.00002315  .00011942  00000-0  64738-3 0  9991","l2":"2 49954   0.2315  46.0553 0007171 259.2250 207.8478 15.10538277  5244"},{"id":"69123","name":"SMILE","type":"PAYLOAD","l1":"1 69123U 26109A   26194.95939329  .00000936  00000-0  00000-0 0  9998","l2":"2 69123  70.0512 206.6048 8313708 286.9544   0.1879  0.47500629    66"}]}